#dV2023  2  4 22  0  0.00000000    1682       CTS   FIT  GFZ
## 2247 597600.00000000    30.00000000 59979 0.9166666666667
+    1   L64  0  0  0  0  0  0  0  0  0  0  0  0  0  0  0  0
+          0  0  0  0  0  0  0  0  0  0  0  0  0  0  0  0  0
+          0  0  0  0  0  0  0  0  0  0  0  0  0  0  0  0  0
+          0  0  0  0  0  0  0  0  0  0  0  0  0  0  0  0  0
+          0  0  0  0  0  0  0  0  0  0  0  0  0  0  0  0  0
++         0  0  0  0  0  0  0  0  0  0  0  0  0  0  0  0  0
++         0  0  0  0  0  0  0  0  0  0  0  0  0  0  0  0  0
++         0  0  0  0  0  0  0  0  0  0  0  0  0  0  0  0  0
++         0  0  0  0  0  0  0  0  0  0  0  0  0  0  0  0  0
++         0  0  0  0  0  0  0  0  0  0  0  0  0  0  0  0  0
%c L  cc GPS ccc cccc cccc cccc cccc ccccc ccccc ccccc ccccc
%c cc cc ccc ccc cccc cccc cccc cccc ccccc ccccc ccccc ccccc
%f  0.0000000  0.000000000  0.00000000000  0.000000000000000
%f  0.0000000  0.000000000  0.00000000000  0.000000000000000
%i    0    0    0    0      0      0      0      0         0
%i    0    0    0    0      0      0      0      0         0
/* CCCCCCCCCCCCCCCCCCCCCCCCCCCCCCCCCCCCCCCCCCCCCCCCCCCCCCCCCCCCCCCCCCCCCCCCCCCCC
/* C                             GFZ RSO-ORBIT                                 C
/* C DOI: https://doi.org/10.5880/GFZ_ORBIT/RSO/L64_G_v02                      C
/* C                                                                           C
/* C DORIS        RMS: not applicable                                          C
/* C GNSS-E Code  RMS: not applicable                                          C
/* C GNSS-E Phase RMS: not applicable                                          C
/* C GNSS-G Code  RMS:  48.494 [cm]   Obs.acc.:     13784 Obs.eli.:       936  C
/* C GNSS-G Phase RMS:   4.036 [mm]   Obs.acc.:     13784 Obs.eli.:       936  C
/* C SLR          RMS:   1.298 [cm]   Obs.acc.:        14 Obs.eli.:         0  C
/* C                                                                           C
/* CCCCCCCCCCCCCCCCCCCCCCCCCCCCCCCCCCCCCCCCCCCCCCCCCCCCCCCCCCCCCCCCCCCCCCCCCCCCC
*  2023  2  5  3 57  0.00000000
PL64    908.627569      5.662422  -6816.282473   1951.905105
VL64 -74729.255916   8982.316223 -10066.386861 999999.999999
*  2023  2  5  3 57 30.00000000
PL64    684.044096     33.092397  -6842.726788   1952.365087
VL64 -74979.186699   9302.851656  -7561.623863 999999.999999
*  2023  2  5  3 58  0.00000000
PL64    458.835770     61.470285  -6861.644378   1952.824941
VL64 -75145.799694   9614.140736  -5049.023744 999999.999999
*  2023  2  5  3 58 30.00000000
PL64    233.252726     90.767293  -6873.015821   1953.284975
VL64 -75228.988053   9915.481693  -2531.313457 999999.999999
*  2023  2  5  3 59  0.00000000
PL64      7.545285    120.952535  -6876.829879   1953.744911
VL64 -75228.736401  10206.182225    -11.222716 999999.999999
*  2023  2  5  3 59 30.00000000
PL64   -218.036324    151.993065  -6873.083506   1954.204872
VL64 -75145.119161  10485.561575   2508.518944 999999.999999
*  2023  2  5  4  0  0.00000000
PL64   -443.242226    183.853915  -6861.781843   1954.664602
VL64 -74978.300150  10752.952777   5025.183289 999999.999999
*  2023  2  5  4  0 30.00000000
PL64   -667.823174    216.498140  -6842.938209   1955.124174
VL64 -74728.533564  11007.703235   7536.045478 999999.999999
*  2023  2  5  4  1  0.00000000
PL64   -891.530822    249.886855  -6816.574090   1955.583616
VL64 -74396.164575  11249.174751  10038.388005 999999.999999
*  2023  2  5  4  1 30.00000000
PL64  -1114.117991    283.979286  -6782.719106   1956.043138
VL64 -73981.627662  11476.744535  12529.505256 999999.999999
*  2023  2  5  4  2  0.00000000
PL64  -1335.338938    318.732814  -6741.410976   1956.502895
VL64 -73485.443821  11689.806690  15006.705554 999999.999999
*  2023  2  5  4  2 30.00000000
PL64  -1554.949611    354.103030  -6692.695468   1956.963168
VL64 -72908.220268  11887.773086  17467.311585 999999.999999
*  2023  2  5  4  3  0.00000000
PL64  -1772.707911    390.043787  -6636.626361   1957.423231
VL64 -72250.651221  12070.074106  19908.663297 999999.999999
*  2023  2  5  4  3 30.00000000
PL64  -1988.373950    426.507258  -6573.265383   1957.883949
VL64 -71513.516223  12236.159476  22328.120888 999999.999999
*  2023  2  5  4  4  0.00000000
PL64  -2201.710304    463.443998  -6502.682149   1958.344865
VL64 -70697.679636  12385.499313  24723.065693 999999.999999
*  2023  2  5  4  4 30.00000000
PL64  -2412.482273    500.803000  -6424.954097   1958.805506
VL64 -69804.091231  12517.585488  27090.903686 999999.999999
*  2023  2  5  4  5  0.00000000
PL64  -2620.458130    538.531770  -6340.166401   1959.266285
VL64 -68833.783783  12631.932409  29429.069222 999999.999999
*  2023  2  5  4  5 30.00000000
PL64  -2825.409368    576.576392  -6248.411891   1959.726684
VL64 -67787.871392  12728.077734  31735.025643 999999.999999
*  2023  2  5  4  6  0.00000000
PL64  -3027.110946    614.881597  -6149.790963   1960.187042
VL64 -66667.550190  12805.583578  34006.266603 999999.999999
*  2023  2  5  4  6 30.00000000
PL64  -3225.341536    653.390841  -6044.411481   1960.647742
VL64 -65474.099183  12864.037495  36240.319561 999999.999999
*  2023  2  5  4  7  0.00000000
PL64  -3419.883770    692.046382  -5932.388669   1961.108427
VL64 -64208.879268  12903.053006  38434.750958 999999.999999
*  2023  2  5  4  7 30.00000000
PL64  -3610.524480    730.789359  -5813.844989   1961.568872
VL64 -62873.329379  12922.270199  40587.170251 999999.999999
*  2023  2  5  4  8  0.00000000
PL64  -3797.054927    769.559872  -5688.910008   1962.028716
VL64 -61468.962776  12921.356463  42695.230778 999999.999999
*  2023  2  5  4  8 30.00000000
PL64  -3979.271023    808.297062  -5557.720268   1962.488008
VL64 -59997.365744  12900.007136  44756.629340 999999.999999
*  2023  2  5  4  9  0.00000000
PL64  -4156.973549    846.939202  -5420.419154   1962.947249
VL64 -58460.198503  12857.946713  46769.106857 999999.999999
*  2023  2  5  4  9 30.00000000
PL64  -4329.968377    885.423785  -5277.156760   1963.407112
VL64 -56859.196012  12794.930298  48730.452191 999999.999999
*  2023  2  5  4 10  0.00000000
PL64  -4498.066695    923.687613  -5128.089733   1963.866822
VL64 -55196.166062  12710.744152  50638.507343 999999.999999
*  2023  2  5  4 10 30.00000000
PL64  -4661.085220    961.666896  -4973.381110   1964.326098
VL64 -53472.985535  12605.205776  52491.170487 999999.999999
*  2023  2  5  4 11  0.00000000
PL64  -4818.846399    999.297344  -4813.200149   1964.785616
VL64 -51691.598172  12478.164679  54286.396921 999999.999999
*  2023  2  5  4 11 30.00000000
PL64  -4971.178610   1036.514263  -4647.722152   1965.245052
VL64 -49854.013290  12329.503429  56022.201887 999999.999999
*  2023  2  5  4 12  0.00000000
PL64  -5117.916351   1073.252659  -4477.128283   1965.704454
VL64 -47962.302580  12159.137300  57696.663621 999999.999999
*  2023  2  5  4 12 30.00000000
PL64  -5258.900429   1109.447329  -4301.605374   1966.163819
VL64 -46018.597778  11967.013786  59307.923857 999999.999999
*  2023  2  5  4 13  0.00000000
PL64  -5393.978133   1145.032964  -4121.345737   1966.622635
VL64 -44025.090004  11753.113550  60854.189311 999999.999999
*  2023  2  5  4 13 30.00000000
PL64  -5523.003413   1179.944247  -3936.546960   1967.080999
VL64 -41984.027956  11517.451300  62333.735097 999999.999999
*  2023  2  5  4 14  0.00000000
PL64  -5645.837048   1214.115957  -3747.411702   1967.539802
VL64 -39897.714794  11260.075957  63744.907636 999999.999999
*  2023  2  5  4 14 30.00000000
PL64  -5762.346804   1247.483072  -3554.147471   1967.998962
VL64 -37768.505326  10981.070740  65086.126401 999999.999999
*  2023  2  5  4 15  0.00000000
PL64  -5872.407586   1279.980868  -3356.966406   1968.458571
VL64 -35598.803602  10680.553376  66355.885638 999999.999999
*  2023  2  5  4 15 30.00000000
PL64  -5975.901582   1311.545031  -3156.085048   1968.918556
VL64 -33391.060299  10358.676304  67552.756236 999999.999999
*  2023  2  5  4 16  0.00000000
PL64  -6072.718400   1342.111752  -2951.724110   1969.378262
VL64 -31147.770019  10015.626627  68675.387535 999999.999999
*  2023  2  5  4 16 30.00000000
PL64  -6162.755190   1371.617838  -2744.108236   1969.837669
VL64 -28871.468609   9651.625979  69722.508974 999999.999999
*  2023  2  5  4 17  0.00000000
PL64  -6245.916773   1400.000812  -2533.465758   1970.297571
VL64 -26564.730664   9266.930486  70692.931560 999999.999999
*  2023  2  5  4 17 30.00000000
PL64  -6322.115747   1427.199016  -2320.028454   1970.757375
VL64 -24230.166864   8861.830754  71585.549822 999999.999999
*  2023  2  5  4 18  0.00000000
PL64  -6391.272591   1453.151717  -2104.031286   1971.217036
VL64 -21870.420302   8436.652129  72399.343842 999999.999999
*  2023  2  5  4 18 30.00000000
PL64  -6453.315758   1477.799209  -1885.712151   1971.676911
VL64 -19488.163432   7991.755202  73133.380098 999999.999999
*  2023  2  5  4 19  0.00000000
PL64  -6508.181761   1501.082924  -1665.311612   1972.136621
VL64 -17086.096451   7527.535676  73786.813385 999999.999999
*  2023  2  5  4 19 30.00000000
PL64  -6555.815249   1522.945529  -1443.072631   1972.596158
VL64 -14666.943016   7044.423134  74358.889989 999999.999999
*  2023  2  5  4 20  0.00000000
PL64  -6596.169073   1543.331031  -1219.240294   1973.056076
VL64 -12233.444911   6542.879925  74848.947723 999999.999999
*  2023  2  5  4 20 30.00000000
PL64  -6629.204332   1562.184871   -994.061537   1973.515779
VL64  -9788.360318   6023.400373  75256.415390 999999.999999
*  2023  2  5  4 21  0.00000000
PL64  -6654.890420   1579.454021   -767.784873   1973.975601
VL64  -7334.460999   5486.509862  75580.814973 999999.999999
*  2023  2  5  4 21 30.00000000
PL64  -6673.205063   1595.087075   -540.660103   1974.435731
VL64  -4874.526863   4932.764753  75821.762138 999999.999999
*  2023  2  5  4 22  0.00000000
PL64  -6684.134331   1609.034342   -312.938047   1974.895508
VL64  -2411.342616   4362.752835  75978.965246 999999.999999
EOF
